[{"OBJECT_NAME":"PRAETORIAN SDA_602","OBJECT_ID":"2025-203A","EPOCH":"2026-03-09T13:43:46.934400","MEAN_MOTION":13.84333513,"ECCENTRICITY":0.0007211,"INCLINATION":81.2997,"RA_OF_ASC_NODE":103.0486,"ARG_OF_PERICENTER":104.2018,"MEAN_ANOMALY":255.994,"EPHEMERIS_TYPE":0,"CLASSIFICATION_TYPE":"U","NORAD_CAT_ID":65565,"ELEMENT_SET_NO":999,"REV_AT_EPOCH":2491,"BSTAR":0.00018437,"MEAN_MOTION_DOT":2.18e-6,"MEAN_MOTION_DDOT":0},{"OBJECT_NAME":"SL-8 R\/B","OBJECT_ID":"1982-055B","EPOCH":"2026-03-09T23:15:39.806208","MEAN_MOTION":13.74589877,"ECCENTRICITY":0.00431728,"INCLINATION":65.8348,"RA_OF_ASC_NODE":329.0868,"ARG_OF_PERICENTER":310.2259,"MEAN_ANOMALY":133.7656,"EPHEMERIS_TYPE":0,"CLASSIFICATION_TYPE":"U","NORAD_CAT_ID":13260,"ELEMENT_SET_NO":999,"REV_AT_EPOCH":19729,"BSTAR":6.3096123e-5,"MEAN_MOTION_DOT":-2.0e-7,"MEAN_MOTION_DDOT":0}]
